{"type": "FeatureCollection", "features": [ {"type": "Feature", "properties": {"norad_id": 32289, "name": "YAOGAN-3", "group": "resource", "lat": -25.58491000989541, "lon": 17.34979532019401, "alt_km": 604.1918741490563, "timestamp": "2025-12-12T22:42:12.206588+00:00", "meta": {"OBJECT_NAME": "YAOGAN-3", "OBJECT_ID": "2007-055A", "EPOCH": "2025-12-12T08:18:43.886592", "MEAN_MOTION": 14.89855908, "ECCENTRICITY": 0.00012153, "INCLINATION": 97.8367, "RA_OF_ASC_NODE": 12.9745, "ARG_OF_PERICENTER": 75.9551, "MEAN_ANOMALY": 284.1802, "EPHEMERIS_TYPE": 0, "CLASSIFICATION_TYPE": "U", "NORAD_CAT_ID": 32289, "ELEMENT_SET_NO": 999, "REV_AT_EPOCH": 97803, "BSTAR": 0.00047437129, "MEAN_MOTION_DOT": 4.504e-05, "MEAN_MOTION_DDOT": 0}, "tle": {"line1": "1 32289U 07055A   25346.34634128  .00004504  00000+0  47437-3 0  9992", "line2": "2 32289  97.8367  12.9745 0001215  75.9551 284.1802 14.89855908978034"}}, "geometry": {"type": "Point", "coordinates": [17.34979532019401, -25.58491000989541]}}, {"type": "Feature", "properties": {"norad_id": 32376, "name": "COSMO-SKYMED 2", "group": "resource", "lat": -66.42958144819893, "lon": -30.245455759154904, "alt_km": 630.7572279538126, "timestamp": "2025-12-12T22:42:12.206607+00:00", "meta": {"OBJECT_NAME": "COSMO-SKYMED 2", "OBJECT_ID": "2007-059A", "EPOCH": "2025-12-12T07:00:25.938432", "MEAN_MOTION": 14.82165657, "ECCENTRICITY": 0.00015058, "INCLINATION": 97.8811, "RA_OF_ASC_NODE": 167.6226, "ARG_OF_PERICENTER": 84.8378, "MEAN_ANOMALY": 275.3007, "EPHEMERIS_TYPE": 0, "CLASSIFICATION_TYPE": "U", "NORAD_CAT_ID": 32376, "ELEMENT_SET_NO": 999, "REV_AT_EPOCH": 97431, "BSTAR": 0.00012412125, "MEAN_MOTION_DOT": 9.36e-06, "MEAN_MOTION_DDOT": 0}, "tle": {"line1": "1 32376U 07059A   25346.29196688  .00000936  00000+0  12412-3 0  9991", "line2": "2 32376  97.8811 167.6226 0001505  84.8378 275.3007 14.82165657974319"}}, "geometry": {"type": "Point", "coordinates": [-30.245455759154904, -66.42958144819893]}}, {"type": "Feature", "properties": {"norad_id": 32382, "name": "RADARSAT-2", "group": "resource", "lat": 21.73774861849112, "lon": 174.98413791129357, "alt_km": 791.3223061125254, "timestamp": "2025-12-12T22:42:12.206619+00:00", "meta": {"OBJECT_NAME": "RADARSAT-2", "OBJECT_ID": "2007-061A", "EPOCH": "2025-12-12T06:51:13.621248", "MEAN_MOTION": 14.29981086, "ECCENTRICITY": 0.00010998, "INCLINATION": 98.5802, "RA_OF_ASC_NODE": 350.8822, "ARG_OF_PERICENTER": 85.5127, "MEAN_ANOMALY": 274.6181, "EPHEMERIS_TYPE": 0, "CLASSIFICATION_TYPE": "U", "NORAD_CAT_ID": 32382, "ELEMENT_SET_NO": 999, "REV_AT_EPOCH": 93924, "BSTAR": -2.0578712e-05, "MEAN_MOTION_DOT": -9.7e-07, "MEAN_MOTION_DDOT": 0}, "tle": {"line1": "1 32382U 07061A   25346.28557432 -.00000097  00000+0 -20579-4 0  9992", "line2": "2 32382  98.5802 350.8822 0001099  85.5127 274.6181 14.29981086939241"}}, "geometry": {"type": "Point", "coordinates": [174.98413791129357, 21.73774861849112]}}, {"type": "Feature", "properties": {"norad_id": 32783, "name": "CARTOSAT-2A", "group": "resource", "lat": 24.653455833179382, "lon": 33.15911557688066, "alt_km": 624.2000457184422, "timestamp": "2025-12-12T22:42:12.206631+00:00", "meta": {"OBJECT_NAME": "CARTOSAT-2A", "OBJECT_ID": "2008-021A", "EPOCH": "2025-12-12T07:58:38.853696", "MEAN_MOTION": 14.78937837, "ECCENTRICITY": 0.00119396, "INCLINATION": 97.7929, "RA_OF_ASC_NODE": 36.1684, "ARG_OF_PERICENTER": 6.2188, "MEAN_ANOMALY": 353.9169, "EPHEMERIS_TYPE": 0, "CLASSIFICATION_TYPE": "U", "NORAD_CAT_ID": 32783, "ELEMENT_SET_NO": 999, "REV_AT_EPOCH": 95118, "BSTAR": 0.00025250782, "MEAN_MOTION_DOT": 1.814e-05, "MEAN_MOTION_DDOT": 0}, "tle": {"line1": "1 32783U 08021A   25346.33239414  .00001814  00000+0  25251-3 0  9994", "line2": "2 32783  97.7929  36.1684 0011939   6.2188 353.9169 14.78937837951181"}}, "geometry": {"type": "Point", "coordinates": [33.15911557688066, 24.653455833179382]}}, {"type": "Feature", "properties": {"norad_id": 33320, "name": "HUANJING 1A (HJ-1A)", "group": "resource", "lat": -71.8788333757648, "lon": 130.9714115050664, "alt_km": 636.7859207669862, "timestamp": "2025-12-12T22:42:12.206641+00:00", "meta": {"OBJECT_NAME": "HUANJING 1A (HJ-1A)", "OBJECT_ID": "2008-041A", "EPOCH": "2025-12-12T06:59:37.671072", "MEAN_MOTION": 14.83393499, "ECCENTRICITY": 0.00202011, "INCLINATION": 97.6545, "RA_OF_ASC_NODE": 334.6087, "ARG_OF_PERICENTER": 35.8709, "MEAN_ANOMALY": 324.3858, "EPHEMERIS_TYPE": 0, "CLASSIFICATION_TYPE": "U", "NORAD_CAT_ID": 33320, "ELEMENT_SET_NO": 999, "REV_AT_EPOCH": 93069, "BSTAR": 0.00030447621, "MEAN_MOTION_DOT": 2.455e-05, "MEAN_MOTION_DDOT": 0}, "tle": {"line1": "1 33320U 08041A   25346.29140823  .00002455  00000+0  30448-3 0  9990", "line2": "2 33320  97.6545 334.6087 0020201  35.8709 324.3858 14.83393499930690"}}, "geometry": {"type": "Point", "coordinates": [130.9714115050664, -71.8788333757648]}}, {"type": "Feature", "properties": {"norad_id": 33321, "name": "HUANJING 1B (HJ-1B)", "group": "resource", "lat": 64.27555580145507, "lon": 175.10989533676988, "alt_km": 593.5546521594515, "timestamp": "2025-12-12T22:42:12.206652+00:00", "meta": {"OBJECT_NAME": "HUANJING 1B (HJ-1B)", "OBJECT_ID": "2008-041B", "EPOCH": "2025-12-12T05:59:46.665888", "MEAN_MOTION": 14.82820323, "ECCENTRICITY": 0.00381911, "INCLINATION": 97.6403, "RA_OF_ASC_NODE": 338.267, "ARG_OF_PERICENTER": 77.1817, "MEAN_ANOMALY": 283.366, "EPHEMERIS_TYPE": 0, "CLASSIFICATION_TYPE": "U", "NORAD_CAT_ID": 33321, "ELEMENT_SET_NO": 999, "REV_AT_EPOCH": 93070, "BSTAR": 0.0003403018, "MEAN_MOTION_DOT": 2.737e-05, "MEAN_MOTION_DDOT": 0}, "tle": {"line1": "1 33321U 08041B   25346.24984567  .00002737  00000+0  34030-3 0  9991", "line2": "2 33321  97.6403 338.2670 0038191  77.1817 283.3660 14.82820323930705"}}, "geometry": {"type": "Point", "coordinates": [175.10989533676988, 64.27555580145507]}}, {"type": "Feature", "properties": {"norad_id": 33331, "name": "GEOEYE 1", "group": "resource", "lat": 81.39377115095128, "lon": -12.50452051104935, "alt_km": 672.1340468998651, "timestamp": "2025-12-12T22:42:12.206665+00:00", "meta": {"OBJECT_NAME": "GEOEYE 1", "OBJECT_ID": "2008-042A", "EPOCH": "2025-12-12T05:54:45.709632", "MEAN_MOTION": 14.6481186, "ECCENTRICITY": 0.00027392, "INCLINATION": 98.1253, "RA_OF_ASC_NODE": 57.5333, "ARG_OF_PERICENTER": 278.448, "MEAN_ANOMALY": 81.6413, "EPHEMERIS_TYPE": 0, "CLASSIFICATION_TYPE": "U", "NORAD_CAT_ID": 33331, "ELEMENT_SET_NO": 999, "REV_AT_EPOCH": 92278, "BSTAR": 0.00019429048, "MEAN_MOTION_DOT": 9.89e-06, "MEAN_MOTION_DDOT": 0}, "tle": {"line1": "1 33331U 08042A   25346.24636238  .00000989  00000+0  19429-3 0  9994", "line2": "2 33331  98.1253  57.5333 0002739 278.4480  81.6413 14.64811860922783"}}, "geometry": {"type": "Point", "coordinates": [-12.50452051104935, 81.39377115095128]}}, {"type": "Feature", "properties": {"norad_id": 33396, "name": "THEOS", "group": "resource", "lat": -81.37059055549318, "lon": 129.63634234238594, "alt_km": 833.1988135860474, "timestamp": "2025-12-12T22:42:12.206679+00:00", "meta": {"OBJECT_NAME": "THEOS", "OBJECT_ID": "2008-049A", "EPOCH": "2025-12-12T07:54:14.770368", "MEAN_MOTION": 14.2009579, "ECCENTRICITY": 0.00011616, "INCLINATION": 98.5864, "RA_OF_ASC_NODE": 44.4305, "ARG_OF_PERICENTER": 96.2065, "MEAN_ANOMALY": 263.9244, "EPHEMERIS_TYPE": 0, "CLASSIFICATION_TYPE": "U", "NORAD_CAT_ID": 33396, "ELEMENT_SET_NO": 999, "REV_AT_EPOCH": 89144, "BSTAR": -2.0669722e-05, "MEAN_MOTION_DOT": -8.7e-07, "MEAN_MOTION_DDOT": 0}, "tle": {"line1": "1 33396U 08049A   25346.32933762 -.00000087  00000+0 -20670-4 0  9995", "line2": "2 33396  98.5864  44.4305 0001161  96.2065 263.9244 14.20095790891446"}}, "geometry": {"type": "Point", "coordinates": [129.63634234238594, -81.37059055549318]}}, {"type": "Feature", "properties": {"norad_id": 33412, "name": "COSMO-SKYMED 3", "group": "resource", "lat": 60.15744925710586, "lon": -176.57026922837727, "alt_km": 548.7127013535828, "timestamp": "2025-12-12T22:42:12.206693+00:00", "meta": {"OBJECT_NAME": "COSMO-SKYMED 3", "OBJECT_ID": "2008-054A", "EPOCH": "2025-12-12T08:04:28.051392", "MEAN_MOTION": 15.05351284, "ECCENTRICITY": 0.00160172, "INCLINATION": 97.8473, "RA_OF_ASC_NODE": 196.7206, "ARG_OF_PERICENTER": 175.1779, "MEAN_ANOMALY": 184.9604, "EPHEMERIS_TYPE": 0, "CLASSIFICATION_TYPE": "U", "NORAD_CAT_ID": 33412, "ELEMENT_SET_NO": 999, "REV_AT_EPOCH": 92881, "BSTAR": 0.00056296653, "MEAN_MOTION_DOT": 8.025e-05, "MEAN_MOTION_DDOT": 0}, "tle": {"line1": "1 33412U 08054A   25346.33643578  .00008025  00000+0  56297-3 0  9995", "line2": "2 33412  97.8473 196.7206 0016017 175.1779 184.9604 15.05351284928810"}}, "geometry": {"type": "Point", "coordinates": [-176.57026922837727, 60.15744925710586]}}, {"type": "Feature", "properties": {"norad_id": 33446, "name": "YAOGAN-4", "group": "resource", "lat": 25.60417456911494, "lon": -86.78092425777749, "alt_km": 615.757320452245, "timestamp": "2025-12-12T22:42:12.206704+00:00", "meta": {"OBJECT_NAME": "YAOGAN-4", "OBJECT_ID": "2008-061A", "EPOCH": "2025-12-12T06:23:25.930176", "MEAN_MOTION": 14.82680249, "ECCENTRICITY": 0.00135971, "INCLINATION": 97.918, "RA_OF_ASC_NODE": 276.3703, "ARG_OF_PERICENTER": 325.0698, "MEAN_ANOMALY": 34.9622, "EPHEMERIS_TYPE": 0, "CLASSIFICATION_TYPE": "U", "NORAD_CAT_ID": 33446, "ELEMENT_SET_NO": 999, "REV_AT_EPOCH": 91796, "BSTAR": 0.00029483292, "MEAN_MOTION_DOT": 2.328e-05, "MEAN_MOTION_DDOT": 0}, "tle": {"line1": "1 33446U 08061A   25346.26627234  .00002328  00000+0  29483-3 0  9990", "line2": "2 33446  97.9180 276.3703 0013597 325.0698  34.9622 14.82680249917964"}}, "geometry": {"type": "Point", "coordinates": [-86.78092425777749, 25.60417456911494]}}]}